{"type":"FeatureCollection", "features": [
{"type":"Feature","geometry":{"type":"Polygon","coordinates":[[[-99.139396,19.495677],[-99.139704,19.494094],[-99.140085,19.492141],[-99.139701,19.49208],[-99.139311,19.492018],[-99.139217,19.492003],[-99.138861,19.491947],[-99.138363,19.491868],[-99.138523,19.491054],[-99.138637,19.490472],[-99.138743,19.489931],[-99.138915,19.489051],[-99.138446,19.488983],[-99.137992,19.488932],[-99.137533,19.48888],[-99.137019,19.488825],[-99.136496,19.488769],[-99.135974,19.488714],[-99.136009,19.488535],[-99.1363,19.487049],[-99.13659500000001,19.485528],[-99.136508,19.485627],[-99.136515,19.485591],[-99.136527,19.485524],[-99.13655100000001,19.485396],[-99.136563,19.485313],[-99.134723,19.485013],[-99.134625,19.484996],[-99.134527,19.484978],[-99.134272,19.486304],[-99.134018,19.487629],[-99.131908,19.487172],[-99.13055700000001,19.486848],[-99.130341,19.486733],[-99.130219,19.486924],[-99.12949099999999,19.4878],[-99.129462,19.487728],[-99.129275,19.487283],[-99.129247,19.487217],[-99.129219,19.48715],[-99.129056,19.486762],[-99.12902599999998,19.486698],[-99.129001,19.486632],[-99.12883699999999,19.486244],[-99.12881200000001,19.486189],[-99.128791,19.486132],[-99.128639,19.485768],[-99.128608,19.485696],[-99.12858,19.48563],[-99.12849100000001,19.485417],[-99.128395,19.485277],[-99.128303,19.485143],[-99.128176,19.484788],[-99.12815,19.484726],[-99.128124,19.484663],[-99.127965,19.484283],[-99.12793100000002,19.48421],[-99.127915,19.484177],[-99.12786,19.484152],[-99.127544,19.483889],[-99.127473,19.483836],[-99.12744400000001,19.483815],[-99.12711000000002,19.483564],[-99.12706000000001,19.483527],[-99.127009,19.483489],[-99.126905,19.483408],[-99.12688100000001,19.483439],[-99.126501,19.483898],[-99.12594099999998,19.484564],[-99.12569899999998,19.484852],[-99.125047,19.485628],[-99.12493499999998,19.485761],[-99.123814,19.48721],[-99.12227999999999,19.489037],[-99.122188,19.48931],[-99.12214899999998,19.489439],[-99.12205999999999,19.489796],[-99.122014,19.489974],[-99.121967,19.490186],[-99.121925,19.490408],[-99.121823,19.490714],[-99.12280800000002,19.489552],[-99.12329299999999,19.490019],[-99.12377699999999,19.490486],[-99.12425800000001,19.490948],[-99.12475,19.491423],[-99.125232,19.491887],[-99.126511,19.490312],[-99.12708,19.490739],[-99.12752900000001,19.491076],[-99.127649,19.491166],[-99.12799400000002,19.491425],[-99.128184,19.491568],[-99.128417,19.491743],[-99.128864,19.492079],[-99.129201,19.492332],[-99.12927,19.492382],[-99.129836,19.492793],[-99.130383,19.493191],[-99.13094,19.493596],[-99.13149799999998,19.494001],[-99.13170500000001,19.494037],[-99.132261,19.494133],[-99.132676,19.494205],[-99.132772,19.494185],[-99.132848,19.494206],[-99.132914,19.494216],[-99.13345999999999,19.494339],[-99.13394100000001,19.494447],[-99.136347,19.494986],[-99.13775800000002,19.495303],[-99.138109,19.495383],[-99.138631,19.495502],[-99.139022,19.495591],[-99.139396,19.495677]]]},"properties":{"name":"LINDAVISTA I","styleUrl":"#__managed_style_01289D26563B7D333EBC","fill-opacity":0.25098039215686274,"fill":"#303f9f","stroke-opacity":1,"stroke":"#3949ab","stroke-width":0.484,"icon-offset":[64,128],"icon-offset-units":["pixels","insetPixels"],"icon":"https://earth.google.com/earth/document/icon?color=1976d2&id=2000&scale=4","123195636136DA6DB6E5":"","2C233FB8D036DA6DB6E5":"9","3E809C1D2236DA6DB6E5":"5","4CEA5A442B36DA6DB6E5":"GUSTAVO A. MADERO","539C9838E436DA6DB6E5":"05-225","02C135686036DA6DB6E6":"1059, 1060, 1066, 1067, 1068, 1292, 1293, 1295, 1297","11D6FAB63D36DA6DB6E6":""},"id":"00C049D54C36DA6EF103"},
{"type":"Feature","geometry":{"type":"Polygon","coordinates":[[[-99.12227999999999,19.489037],[-99.121209,19.490332],[-99.12073900000001,19.491134],[-99.120401,19.491981],[-99.120335,19.492146],[-99.120415,19.492255],[-99.12092,19.492943],[-99.121301,19.493463],[-99.121678,19.494072],[-99.122056,19.494681],[-99.122432,19.495287],[-99.122823,19.495917],[-99.123225,19.496565],[-99.123257,19.496652],[-99.123588,19.497151],[-99.123838,19.497554],[-99.124105,19.49795],[-99.12437199999998,19.498347],[-99.124619,19.498716],[-99.124833,19.499033],[-99.124895,19.499125],[-99.125163,19.499523],[-99.12524500000002,19.49965],[-99.125424,19.499924],[-99.12562600000001,19.500233],[-99.12568599999999,19.500324],[-99.125961,19.500744],[-99.126025,19.500835],[-99.126442,19.501419],[-99.126786,19.501901],[-99.126883,19.502037],[-99.126951,19.502131],[-99.127342,19.50268],[-99.12773299999999,19.503228],[-99.12778900000002,19.503307],[-99.127845,19.503385],[-99.128289,19.504007],[-99.12870799999999,19.504595],[-99.129121,19.505174],[-99.12951900000002,19.505732],[-99.12961999999999,19.505771],[-99.129729,19.505645],[-99.12982499999998,19.505525],[-99.12938100000001,19.504716],[-99.128506,19.503157],[-99.12852899999999,19.503132],[-99.128569,19.503089],[-99.128955,19.502734],[-99.129059,19.502643],[-99.129811,19.502776],[-99.13106600000002,19.502997],[-99.131194,19.503019],[-99.131322,19.503041],[-99.133181,19.503356],[-99.13335299999999,19.503391],[-99.13420500000001,19.504251],[-99.134489,19.504551],[-99.134779,19.504836],[-99.135235,19.505308],[-99.135704,19.505781],[-99.13721700000002,19.507308],[-99.13767300000002,19.507771],[-99.13801,19.508113],[-99.13833699999999,19.508444],[-99.13868599999999,19.508797],[-99.13931599999998,19.509437],[-99.139395,19.509516],[-99.13962999999998,19.509744],[-99.139734,19.509692],[-99.139838,19.50964],[-99.141209,19.509137],[-99.14248199999999,19.50867],[-99.142821,19.508534],[-99.143386,19.508307],[-99.14732,19.506726],[-99.147401,19.506694],[-99.148543,19.506257],[-99.149764,19.505791],[-99.150638,19.505457],[-99.150805,19.505392],[-99.15073,19.505203],[-99.150665,19.505041],[-99.150639,19.504976],[-99.148726,19.500147],[-99.14849499999998,19.499595],[-99.148444,19.499474],[-99.14823300000002,19.499388],[-99.147568,19.499117],[-99.14740600000002,19.49905],[-99.147025,19.498895],[-99.146471,19.498669],[-99.145928,19.498448],[-99.145386,19.498227],[-99.14483799999998,19.498003],[-99.144289,19.49778],[-99.143833,19.497584],[-99.143486,19.497435],[-99.143048,19.497247],[-99.141264,19.496416],[-99.140583,19.496099],[-99.14013600000001,19.495911],[-99.140056,19.495877],[-99.139396,19.495677],[-99.139022,19.495591],[-99.138631,19.495502],[-99.138109,19.495383],[-99.13775800000002,19.495303],[-99.136347,19.494986],[-99.13394100000001,19.494447],[-99.13345999999999,19.494339],[-99.132914,19.494216],[-99.132848,19.494206],[-99.132772,19.494185],[-99.132676,19.494205],[-99.132261,19.494133],[-99.13170500000001,19.494037],[-99.13149799999998,19.494001],[-99.13094,19.493596],[-99.130383,19.493191],[-99.129836,19.492793],[-99.12927,19.492382],[-99.129201,19.492332],[-99.128864,19.492079],[-99.128417,19.491743],[-99.128184,19.491568],[-99.12799400000002,19.491425],[-99.127649,19.491166],[-99.12752900000001,19.491076],[-99.12708,19.490739],[-99.126511,19.490312],[-99.125232,19.491887],[-99.12475,19.491423],[-99.12425800000001,19.490948],[-99.12377699999999,19.490486],[-99.12329299999999,19.490019],[-99.12280800000002,19.489552],[-99.121823,19.490714],[-99.121925,19.490408],[-99.121967,19.490186],[-99.122014,19.489974],[-99.12205999999999,19.489796],[-99.12214899999998,19.489439],[-99.122188,19.48931],[-99.12227999999999,19.489037]]]},"properties":{"name":"LINDAVISTA II","styleUrl":"#__managed_style_32043B12EF3B7D333EB8","fill-opacity":0.25098039215686274,"fill":"#ab47bc","stroke-opacity":1,"stroke":"#ab47bc","stroke-width":0.484,"icon-offset":[64,128],"icon-offset-units":["pixels","insetPixels"],"icon":"https://earth.google.com/earth/document/icon?color=1976d2&id=2000&scale=4","123195636136DA6DB6E5":"","2C233FB8D036DA6DB6E5":"9","3E809C1D2236DA6DB6E5":"5","4CEA5A442B36DA6DB6E5":"GUSTAVO A. MADERO","539C9838E436DA6DB6E5":"05-226","02C135686036DA6DB6E6":"1258, 1259, 1260, 1261, 1263, 1289, 1290, 1291, 1325","11D6FAB63D36DA6DB6E6":"1052, 1256"},"id":"0BF0E912F336DA6DB6E5"},
{"type":"Feature","geometry":{"type":"Polygon","coordinates":[[[-99.136563,19.485313],[-99.13904,19.485784],[-99.139514,19.485857],[-99.140437,19.485998],[-99.14245099999998,19.486308],[-99.142883,19.486471],[-99.14318699999998,19.486618],[-99.143285,19.486666],[-99.143339,19.486692],[-99.143426,19.486734],[-99.14337800000001,19.486608],[-99.14298199999999,19.48557],[-99.143041,19.485549],[-99.143234,19.485483],[-99.14349800000001,19.485392],[-99.143563,19.485369],[-99.143588,19.485361],[-99.143698,19.485323],[-99.143747,19.485306],[-99.144388,19.485085],[-99.145012,19.484869],[-99.145555,19.484682],[-99.146083,19.4845],[-99.14637499999999,19.484399],[-99.14751700000001,19.484005],[-99.147914,19.483868],[-99.148304,19.483733],[-99.148694,19.483599],[-99.14908200000002,19.483465],[-99.149543,19.483307],[-99.149562,19.483299],[-99.14959,19.48329],[-99.149714,19.483247],[-99.148861,19.480984],[-99.14814899999999,19.479097],[-99.147072,19.476228],[-99.14689,19.476186],[-99.14686599999999,19.47618],[-99.14674000000001,19.477131],[-99.14668600000002,19.477421],[-99.145833,19.477205],[-99.145643,19.478249],[-99.146059,19.478359],[-99.146475,19.478468],[-99.14643500000001,19.478695],[-99.146432,19.47883],[-99.146367,19.47921],[-99.146334,19.479239],[-99.145912,19.479144],[-99.145506,19.479061],[-99.145401,19.479614],[-99.145116,19.481013],[-99.14482,19.482565],[-99.144388,19.482442],[-99.143991,19.48233],[-99.14351399999998,19.482501],[-99.142878,19.482729],[-99.142563,19.482842],[-99.14249,19.482868],[-99.142272,19.482947],[-99.14224899999999,19.482955],[-99.14204100000002,19.483029],[-99.14198,19.483051],[-99.14113300000001,19.480876],[-99.140213,19.478491],[-99.140049,19.478557],[-99.139826,19.478],[-99.13973999999999,19.477787],[-99.13970800000001,19.477708],[-99.13968699999998,19.477654],[-99.139156,19.477569],[-99.138791,19.47751],[-99.138731,19.47751],[-99.13859199999999,19.47751],[-99.138359,19.47757],[-99.138239,19.477613],[-99.13823,19.477669],[-99.138222,19.477741],[-99.13801999999998,19.477834],[-99.13794799999998,19.477934],[-99.13791900000001,19.478094],[-99.13772999999999,19.47957],[-99.137525,19.481058],[-99.13749100000001,19.481074],[-99.13744100000001,19.481096],[-99.13739,19.481122],[-99.136462,19.480987],[-99.135506,19.480877],[-99.135423,19.480866],[-99.13534000000001,19.480854],[-99.133585,19.480614],[-99.133493,19.480596],[-99.13340000000001,19.480578],[-99.13287499999998,19.480446],[-99.132341,19.480377],[-99.131581,19.480278],[-99.13154400000002,19.480274],[-99.130848,19.479754],[-99.12961,19.481267],[-99.129624,19.481149],[-99.129675,19.48097],[-99.129697,19.480799],[-99.129725,19.480541],[-99.12978,19.480253],[-99.129729,19.480133],[-99.129678,19.480013],[-99.12846900000001,19.481488],[-99.12842800000001,19.481538],[-99.12841,19.48156],[-99.128392,19.481581],[-99.126965,19.483337],[-99.12694400000001,19.483363],[-99.126905,19.483408],[-99.127009,19.483489],[-99.12706000000001,19.483527],[-99.12711000000002,19.483564],[-99.12744400000001,19.483815],[-99.127473,19.483836],[-99.127544,19.483889],[-99.12786,19.484152],[-99.127915,19.484177],[-99.12793100000002,19.48421],[-99.127965,19.484283],[-99.128124,19.484663],[-99.12815,19.484726],[-99.128176,19.484788],[-99.128303,19.485143],[-99.128395,19.485277],[-99.12849100000001,19.485417],[-99.12858,19.48563],[-99.128608,19.485696],[-99.128639,19.485768],[-99.128791,19.486132],[-99.12881200000001,19.486189],[-99.12883699999999,19.486244],[-99.129001,19.486632],[-99.12902599999998,19.486698],[-99.129056,19.486762],[-99.129219,19.48715],[-99.129247,19.487217],[-99.129275,19.487283],[-99.129462,19.487728],[-99.12949099999999,19.4878],[-99.130219,19.486924],[-99.130341,19.486733],[-99.13055700000001,19.486848],[-99.131908,19.487172],[-99.134018,19.487629],[-99.134272,19.486304],[-99.13270499999999,19.486014],[-99.132209,19.485928],[-99.13249100000002,19.484555],[-99.132693,19.484611],[-99.13393799999999,19.484874],[-99.134527,19.484978],[-99.134625,19.484996],[-99.134723,19.485013],[-99.136563,19.485313]]]},"properties":{"name":"MAGDALENA DE LAS SALINAS","description":{"@type":"html","value":"descripción: <br>entidad: 9<br>cve_alc: 5<br>alcaldia: GUSTAVO A. MADERO<br>cve_col: 05-119<br>secc_com: 1473<br>secc_par: 1469, 1474, 1475, 1480, 1482,  1495"},"styleUrl":"#__managed_style_15B220754F3B7D333EB9","fill-opacity":0.25098039215686274,"fill":"#26a69a","stroke-opacity":1,"stroke":"#26a69a","stroke-width":0.484,"icon-offset":[64,128],"icon-offset-units":["pixels","insetPixels"],"icon":"https://earth.google.com/earth/document/icon?color=1976d2&id=2000&scale=4","123195636136DA6DB6E5":"","2C233FB8D036DA6DB6E5":"9","3E809C1D2236DA6DB6E5":"5","4CEA5A442B36DA6DB6E5":"GUSTAVO A. MADERO","539C9838E436DA6DB6E5":"05-119","02C135686036DA6DB6E6":"1473","11D6FAB63D36DA6DB6E6":"1469, 1474, 1475, 1480, 1482,  1495"},"id":"0ADC08ED0936DA6EB429"},
{"type":"Feature","geometry":{"type":"Polygon","coordinates":[[[-99.128392,19.481581],[-99.128323,19.481529],[-99.127811,19.481148],[-99.127228,19.480751],[-99.126767,19.480604],[-99.126329,19.480479],[-99.125896,19.480371],[-99.125489,19.48026],[-99.125071,19.480166],[-99.124662,19.480056],[-99.124219,19.479942],[-99.123745,19.479825],[-99.123314,19.479693],[-99.123156,19.479644],[-99.122892,19.479551],[-99.12243,19.479382],[-99.12198700000002,19.479258],[-99.121883,19.479206],[-99.12183699999999,19.479081],[-99.121719,19.478944],[-99.121592,19.47884],[-99.12145000000001,19.478783],[-99.121171,19.478688],[-99.121103,19.478664],[-99.121036,19.478641],[-99.12062300000001,19.478509],[-99.11988,19.478254],[-99.119766,19.478227],[-99.119652,19.478199],[-99.11928399999998,19.479181],[-99.11894399999998,19.480004],[-99.118572,19.480904],[-99.118298,19.481568],[-99.11780899999998,19.48275],[-99.11791599999998,19.482784],[-99.11802299999998,19.482818],[-99.118866,19.483087],[-99.119291,19.483223],[-99.118907,19.484188],[-99.118857,19.484319],[-99.118555,19.485115],[-99.11825800000001,19.485899],[-99.118124,19.486262],[-99.117684,19.48754],[-99.117512,19.48804],[-99.117498,19.488092],[-99.117323,19.488928],[-99.117392,19.488992],[-99.118018,19.489575],[-99.11972900000002,19.491169],[-99.11977099999999,19.491387],[-99.119894,19.491557],[-99.120193,19.49197],[-99.120259,19.492062],[-99.120335,19.492146],[-99.120401,19.491981],[-99.12073900000001,19.491134],[-99.121209,19.490332],[-99.12227999999999,19.489037],[-99.123814,19.48721],[-99.12493499999998,19.485761],[-99.125047,19.485628],[-99.12569899999998,19.484852],[-99.12594099999998,19.484564],[-99.126501,19.483898],[-99.12688100000001,19.483439],[-99.126905,19.483408],[-99.12694400000001,19.483363],[-99.126965,19.483337],[-99.128392,19.481581]]]},"properties":{"name":"TEPEYAC INSURGENTES","description":{"@type":"html","value":"descripción: <br>entidad: 9<br>cve_alc: 5<br>alcaldia: GUSTAVO A. MADERO<br>cve_col: 05-181<br>secc_com: 1080, 1081, 1082, 1298, 1299, 1300, 1301, 1326<br>secc_par: 1079"},"styleUrl":"#__managed_style_69FF04C7DC3B7D333EB8","fill-opacity":0.25098039215686274,"fill":"#fbc02d","stroke-opacity":1,"stroke":"#fbc02d","stroke-width":0.484,"icon-offset":[64,128],"icon-offset-units":["pixels","insetPixels"],"icon":"https://earth.google.com/earth/document/icon?color=1976d2&id=2000&scale=4","123195636136DA6DB6E5":"","2C233FB8D036DA6DB6E5":"9","3E809C1D2236DA6DB6E5":"5","4CEA5A442B36DA6DB6E5":"GUSTAVO A. MADERO","539C9838E436DA6DB6E5":"05-181","02C135686036DA6DB6E6":"1080, 1081, 1082, 1298, 1299, 1300, 1301, 1326","11D6FAB63D36DA6DB6E6":"1079"},"id":"0F19BFD15A36DA6DF892"},
{"type":"Feature","geometry":{"type":"Polygon","coordinates":[[[-99.120335,19.492146],[-99.120257,19.492315],[-99.120204,19.492429],[-99.120105,19.492587],[-99.119951,19.492842],[-99.11987799999999,19.493006],[-99.11976799999998,19.493272],[-99.119583,19.493885],[-99.119396,19.49463],[-99.11905699999998,19.496198],[-99.118811,19.497202],[-99.11857299999998,19.498364],[-99.118262,19.49988],[-99.11819,19.500249],[-99.11818200000002,19.500426],[-99.118169,19.500572],[-99.11815400000002,19.500658],[-99.11814,19.500744],[-99.117731,19.501336],[-99.11752,19.501639],[-99.117417,19.501793],[-99.117455,19.501796],[-99.117522,19.501802],[-99.11758,19.501812],[-99.119611,19.502175],[-99.12014500000001,19.50227],[-99.12084899999999,19.502383],[-99.12107599999999,19.502461],[-99.12138999999999,19.502592],[-99.121806,19.50286],[-99.122127,19.50317],[-99.122226,19.503367],[-99.122253,19.50342],[-99.12231,19.503736],[-99.122346,19.503764],[-99.122418,19.50382],[-99.122442,19.503317],[-99.122357,19.503226],[-99.122174,19.503023],[-99.121882,19.502716],[-99.121449,19.502404],[-99.122543,19.501145],[-99.122499,19.502109],[-99.122593,19.502126],[-99.123266,19.502436],[-99.1237,19.503274],[-99.123852,19.503568],[-99.12389000000002,19.50364],[-99.123879,19.503731],[-99.12380200000001,19.50438],[-99.12373900000001,19.504982],[-99.124099,19.5061],[-99.124351,19.506826],[-99.12437,19.506881],[-99.12443100000002,19.50718],[-99.123905,19.507434],[-99.124886,19.509427],[-99.12525500000001,19.510111],[-99.12564,19.509725],[-99.12648199999998,19.508881],[-99.126588,19.508775],[-99.126693,19.50867],[-99.127798,19.507562],[-99.128133,19.507228],[-99.128838,19.506523],[-99.12932499999998,19.506036],[-99.129518,19.505852],[-99.12961999999999,19.505771],[-99.12951900000002,19.505732],[-99.129121,19.505174],[-99.12870799999999,19.504595],[-99.128289,19.504007],[-99.127845,19.503385],[-99.12778900000002,19.503307],[-99.12773299999999,19.503228],[-99.127342,19.50268],[-99.126951,19.502131],[-99.126883,19.502037],[-99.126786,19.501901],[-99.126442,19.501419],[-99.126025,19.500835],[-99.125961,19.500744],[-99.12568599999999,19.500324],[-99.12562600000001,19.500233],[-99.125424,19.499924],[-99.12524500000002,19.49965],[-99.125163,19.499523],[-99.124895,19.499125],[-99.124833,19.499033],[-99.124619,19.498716],[-99.12437199999998,19.498347],[-99.124105,19.49795],[-99.123838,19.497554],[-99.123588,19.497151],[-99.123257,19.496652],[-99.123225,19.496565],[-99.122823,19.495917],[-99.122432,19.495287],[-99.122056,19.494681],[-99.121678,19.494072],[-99.121301,19.493463],[-99.12092,19.492943],[-99.120415,19.492255],[-99.120335,19.492146]]]},"properties":{"name":"RESIDENCIAL ZACATENCO","description":{"@type":"html","value":"descripción: <br>entidad: 9<br>cve_alc: 5<br>alcaldia: GUSTAVO A. MADERO<br>cve_col: 05-146<br>secc_com: 1252, 1254, 1255<br>secc_par: 1214, 1251, 1253"},"styleUrl":"#__managed_style_306DED4DCC3B7D333EBC","fill-opacity":0.2,"fill":"#d32f2f","stroke-opacity":1,"stroke":"#d32f2f","stroke-width":0.484,"icon-offset":[64,128],"icon-offset-units":["pixels","insetPixels"],"icon":"https://earth.google.com/earth/document/icon?color=1976d2&id=2000&scale=4","123195636136DA6DB6E5":"","2C233FB8D036DA6DB6E5":"9","3E809C1D2236DA6DB6E5":"5","4CEA5A442B36DA6DB6E5":"GUSTAVO A. MADERO","539C9838E436DA6DB6E5":"05-146","02C135686036DA6DB6E6":"1252, 1254, 1255","11D6FAB63D36DA6DB6E6":"1214, 1251, 1253"},"id":"01CBA02A1D3B63A9E944"},
{"type":"Feature","geometry":{"type":"Polygon","coordinates":[[[-99.135506,19.480877],[-99.135516,19.480824],[-99.135534,19.480756],[-99.135924,19.479242],[-99.136307,19.47772],[-99.136317,19.477683],[-99.136731,19.476128],[-99.136625,19.47611],[-99.136594,19.476104],[-99.13596299999999,19.475999],[-99.13412000000001,19.475691],[-99.13380200000002,19.475642],[-99.133514,19.475562],[-99.13338399999999,19.475526],[-99.132473,19.476596],[-99.132033,19.477137],[-99.131603,19.477666],[-99.130298,19.479257],[-99.129678,19.480013],[-99.129729,19.480133],[-99.12978,19.480253],[-99.129725,19.480541],[-99.129697,19.480799],[-99.129675,19.48097],[-99.129624,19.481149],[-99.12961,19.481267],[-99.130848,19.479754],[-99.13154400000002,19.480274],[-99.131581,19.480278],[-99.132341,19.480377],[-99.13287499999998,19.480446],[-99.13340000000001,19.480578],[-99.133493,19.480596],[-99.133585,19.480614],[-99.13534000000001,19.480854],[-99.135423,19.480866],[-99.135506,19.480877]]]},"properties":{"name":"CAPULTITLÁN","description":{"@type":"html","value":"descripción: <br>entidad: 9<br>cve_alc: 5<br>alcaldia: GUSTAVO A. MADERO<br>cve_col: 05-018<br>secc_com: <br>secc_par: 1482, 1483"},"styleUrl":"#__managed_style_080093C77D3B7D333EBE","fill-opacity":0.2,"fill":"#f57c00","stroke-opacity":1,"stroke":"#f57c00","stroke-width":0.484,"icon-offset":[64,128],"icon-offset-units":["pixels","insetPixels"],"icon":"https://earth.google.com/earth/document/icon?color=1976d2&id=2000&scale=4","123195636136DA6DB6E5":"","2C233FB8D036DA6DB6E5":"9","3E809C1D2236DA6DB6E5":"5","4CEA5A442B36DA6DB6E5":"GUSTAVO A. MADERO","539C9838E436DA6DB6E5":"05-018","02C135686036DA6DB6E6":"","11D6FAB63D36DA6DB6E6":"1482, 1483"},"id":"0C11E544413B63AB17BF"},
{"type":"Feature","geometry":{"type":"Polygon","coordinates":[[[-99.117323,19.488928],[-99.117498,19.488092],[-99.117512,19.48804],[-99.117684,19.48754],[-99.118124,19.486262],[-99.11825800000001,19.485899],[-99.118555,19.485115],[-99.118857,19.484319],[-99.118907,19.484188],[-99.119291,19.483223],[-99.118866,19.483087],[-99.11802299999998,19.482818],[-99.11791599999998,19.482784],[-99.11780899999998,19.48275],[-99.11716099999998,19.482543],[-99.116357,19.482287],[-99.11549,19.482011],[-99.11463899999998,19.48174],[-99.113837,19.481505],[-99.11313,19.481366],[-99.112322,19.481114],[-99.112018,19.481039],[-99.111679,19.481162],[-99.11145900000001,19.481034],[-99.111215,19.480892],[-99.1104,19.480418],[-99.109035,19.479621],[-99.108549,19.479341],[-99.10846800000002,19.479293],[-99.108398,19.479387],[-99.10761999999998,19.480432],[-99.107539,19.480541],[-99.107507,19.480584],[-99.107332,19.4808],[-99.10691,19.481391],[-99.106791,19.48159],[-99.106721,19.481771],[-99.10665099999999,19.481953],[-99.106568,19.482135],[-99.106521,19.482237],[-99.106411,19.482352],[-99.10626400000001,19.482504],[-99.106637,19.482697],[-99.108493,19.483093],[-99.108832,19.483164],[-99.111357,19.483704],[-99.11306599999999,19.484079],[-99.11340800000002,19.484154],[-99.113537,19.484233],[-99.11361300000002,19.484318],[-99.113653,19.484387],[-99.113675,19.484515],[-99.113636,19.484645],[-99.11354100000001,19.484965],[-99.113495,19.485119],[-99.11336,19.485548],[-99.113292,19.485765],[-99.112914,19.486962],[-99.11277099999998,19.487416],[-99.113389,19.487623],[-99.113634,19.487705],[-99.114043,19.487842],[-99.114197,19.487894],[-99.114772,19.488086],[-99.116866,19.488753],[-99.116951,19.48878],[-99.117165,19.488898],[-99.117323,19.488928]]]},"properties":{"name":"VILLA GAM","description":{"@type":"html","value":"descripción: <br>entidad: 9<br>cve_alc: 5<br>alcaldia: GUSTAVO A. MADERO<br>cve_col: 05-199<br>secc_com: 1303, 1304, 1323, 1324<br>secc_par: "},"styleUrl":"#__managed_style_0EA3D539293B7D333EBF","fill-opacity":0.2,"fill":"#7b1fa2","stroke-opacity":1,"stroke":"#7b1fa2","stroke-width":0.484,"icon-offset":[64,128],"icon-offset-units":["pixels","insetPixels"],"icon":"https://earth.google.com/earth/document/icon?color=1976d2&id=2000&scale=4","123195636136DA6DB6E5":"","2C233FB8D036DA6DB6E5":"9","3E809C1D2236DA6DB6E5":"5","4CEA5A442B36DA6DB6E5":"GUSTAVO A. MADERO","539C9838E436DA6DB6E5":"05-199","02C135686036DA6DB6E6":"1303, 1304, 1323, 1324","11D6FAB63D36DA6DB6E6":""},"id":"0CC8D642973B63AC5DB6"}
]}